OBJECT_NAME,OBJECT_ID,EPOCH,MEAN_MOTION,ECCENTRICITY,INCLINATION,RA_OF_ASC_NODE,ARG_OF_PERICENTER,MEAN_ANOMALY,EPHEMERIS_TYPE,CLASSIFICATION_TYPE,NORAD_CAT_ID,ELEMENT_SET_NO,REV_AT_EPOCH,BSTAR,MEAN_MOTION_DOT,MEAN_MOTION_DDOT
FLOCK 4BE-36,2024-149U,2026-07-12T19:07:03.038016,15.43488814,.0004472,97.3751,278.5445,158.4731,201.6706,0,U,60486,999,10630,.27856E-3,.124E-3,0
FLOCK 4BE-25,2024-149V,2026-07-12T18:25:32.604672,15.39503314,.0003568,97.3800,277.1018,147.6318,212.5147,0,U,60487,999,10617,.26781E-3,.10433E-3,0
FLOCK 4BE-31,2024-149W,2026-07-12T19:16:07.986144,15.45092567,.0003758,97.3799,279.4857,157.7296,202.4117,0,U,60488,999,10633,.3461E-3,.16295E-3,0
FLOCK 4BE-20,2024-149X,2026-07-12T19:24:34.964064,15.38770429,.0004694,97.3699,275.9574,158.3242,201.8202,0,U,60489,999,10615,.26884E-3,.10226E-3,0
FLOCK 4BE-23,2024-149Y,2026-07-12T17:46:52.256640,15.38322323,.0004537,97.3796,276.2776,162.7384,197.4017,0,U,60490,999,10612,.24192E-3,.9058E-4,0
FLOCK 4BE-17,2024-149AA,2026-07-12T18:06:11.331648,15.40520565,.0004105,97.3777,277.3369,152.2435,207.9031,0,U,60492,999,10619,.2738E-3,.11033E-3,0
NUSAT-50 (NANCY ROMAN),2024-149AB,2026-07-12T19:18:36.372096,15.30294248,.0004788,97.3788,274.8880,107.2832,252.8933,0,U,60493,999,10604,.21004E-3,.608E-4,0
FLOCK 4BE-22,2024-149AC,2026-07-12T18:39:43.706016,15.41936586,.0004562,97.3736,277.5931,161.1009,199.0408,0,U,60494,999,10624,.29292E-3,.12381E-3,0
FLOCK 4BE-34,2024-149AD,2026-07-12T19:04:56.479296,15.41901883,.0004595,97.3783,278.4489,167.4136,192.7227,0,U,60495,999,10627,.27495E-3,.11602E-3,0
TYCHE,2024-149AE,2026-07-12T20:12:12.000384,15.25819157,.0002872,97.3753,271.3129,171.6280,188.5007,0,U,60496,999,10581,.10659E-3,.2653E-4,0
FLOCK 4BE-32,2024-149AF,2026-07-12T19:27:43.326432,15.43033515,.000465,97.3726,278.0282,165.6683,194.4697,0,U,60497,999,10628,.32184E-3,.14125E-3,0
NUSAT-48 (HENRIETTA LEAVITT),2024-149AG,2026-07-12T17:28:31.646784,15.30248764,.0004569,97.3925,275.0995,165.4244,194.7129,0,U,60498,999,10604,.18809E-3,.5428E-4,0
NUSAT-49 (KLARA DAN VON NEUMANN),2024-149AJ,2026-07-12T18:28:47.978400,15.30358383,.000228,97.3781,274.8857,169.7300,190.3987,0,U,60500,999,10604,.20862E-3,.6049E-4,0
FLOCK 4BE-11,2024-149AK,2026-07-12T19:00:42.567840,15.43823884,.0004819,97.3700,278.2646,164.5778,195.5618,0,U,60501,999,10630,.31155E-3,.1404E-3,0
YAM-7,2024-149AN,2026-07-12T19:00:36.772128,15.32162294,.0003418,97.3784,273.9417,175.4951,184.6323,0,U,60504,999,10597,.15806E-3,.483E-4,0
FLOCK 4BE-24,2024-149AP,2026-07-12T18:37:43.001760,15.44037965,.0004802,97.3717,278.5154,176.9506,183.1772,0,U,60505,999,10631,.34929E-3,.15869E-3,0
LUR-1,2024-149AQ,2026-07-12T16:19:50.975040,15.30425896,.0003749,97.3736,272.3280,191.4435,168.6721,0,U,60506,999,10587,.14004E-3,.4044E-4,0
TANAGER-1,2024-149AR,2026-07-12T05:34:44.961312,15.43907540,.0001965,97.2303,287.3864,177.3872,182.7387,0,U,60507,999,10690,.63026E-5,.202E-5,0
EAGLEEYE,2024-149AS,2026-07-12T19:10:38.070336,15.76349963,.0004706,97.3726,288.6487,190.1430,169.9741,0,U,60508,999,10696,.74167E-3,.117896E-2,0
FLOCK 4BE-29,2024-149AT,2026-07-12T18:27:41.981760,15.45342130,.0003286,97.3809,280.0431,178.7826,181.3431,0,U,60509,999,10636,.76848E-3,.36693E-3,0
TRANSPORTER-11 OBJECT AU,2024-149AU,2026-07-12T18:42:15.852960,15.40930717,.0004017,97.3733,277.7155,175.9885,184.1395,0,U,60510,999,10625,.27806E-3,.1136E-3,0
FLOCK 4BE-2,2024-149AV,2026-07-12T00:59:44.627136,15.55608654,.00051443,97.3833,281.0962,180.9826,179.1420,0,U,60511,999,10636,.65246971E-3,.4483E-3,0
FLOCK 4BE-13,2024-149AW,2026-07-12T18:50:14.712000,15.42573518,.000493,97.3723,278.4733,162.9128,197.2286,0,U,60512,999,10631,.2443E-3,.10533E-3,0
FLOCK 4BE-27,2024-149AX,2026-07-12T18:05:43.586016,15.34889413,.0003725,97.3827,275.6235,189.8729,170.2442,0,U,60513,999,10606,.18739E-3,.626E-4,0
FLOCK 4BE-9,2024-149AY,2026-07-12T16:07:16.453344,15.41542438,.0003563,97.3800,278.2012,176.7939,183.3331,0,U,60514,999,10624,.23602E-3,.9825E-4,0
FLOCK 4BE-6,2024-149BA,2026-07-12T18:51:57.341376,15.40274107,.0004166,97.3792,277.6273,181.2202,178.9035,0,U,60516,999,10621,.26142E-3,.10444E-3,0
FLOCK 4BE-14,2024-149BB,2026-07-12T17:53:22.248096,15.41804338,.0005084,97.3699,277.7467,184.6362,175.4839,0,U,60517,999,10626,.30497E-3,.12839E-3,0
FLOCK 4BE-1,2024-149BC,2026-07-12T17:37:30.934848,15.43453585,.0004786,97.3783,279.1056,183.5016,176.6199,0,U,60518,999,10631,.28117E-3,.12502E-3,0
